IRIDIUM 112             
1 41925U 17003J   25246.17562661  .00000341  00000+0  11455-3 0  9991
2 41925  86.3993 208.1766 0002173  85.0909 275.0535 14.34217955452138
IRIDIUM 111             
1 41926U 17003K   25246.16294298 -.00000036  00000+0 -19983-4 0  9997
2 41926  86.3997 208.2462 0002191  88.5678 271.5769 14.34216817452112
IRIDIUM 113             
1 42803U 17039A   25246.07313797  .00000033  00000+0  46892-5 0  9992
2 42803  86.3912  82.1913 0001908  87.4923 272.6491 14.34217695430036
IRIDIUM 123             
1 42804U 17039B   25246.04484838 -.00000048  00000+0 -24229-4 0  9992
2 42804  86.3950 113.7005 0002149  94.2549 265.8893 14.34217254428791
IRIDIUM 120             
1 42805U 17039C   25246.06679070  .00000078  00000+0  20610-4 0  9990
2 42805  86.3901  82.0135 0002413  88.3006 271.8466 14.34217409430020
IRIDIUM 115             
1 42806U 17039D   25246.01957490  .00000250  00000+0  68463-4 0  9991
2 42806  86.4438  82.1227 0002598 101.8462 258.3030 14.43281340432845
IRIDIUM 118             
1 42807U 17039E   25246.14632942  .00000010  00000+0 -33552-5 0  9995
2 42807  86.3947 113.6573 0001798  85.0916 275.0485 14.34217548428802
IRIDIUM 117             
1 42808U 17039F   25246.16537793  .00000477  00000+0  16337-3 0  9992
2 42808  86.3949 113.6102 0002117  92.9617 267.1821 14.34217712428836
